{"type": "FeatureCollection", "features": [ {"type": "Feature", "properties": {"norad_id": 34819, "name": "COSMOS 2251 DEB", "group": "cosmos-2251-debris", "lat": -73.82192574449338, "lon": 74.05404316441894, "alt_km": 677.4909937869397, "timestamp": "2025-12-06T05:40:09.640761+00:00", "meta": {"OBJECT_NAME": "COSMOS 2251 DEB", "OBJECT_ID": "1993-036ABJ", "EPOCH": "2025-12-04T05:40:34.334400", "MEAN_MOTION": 14.6376102, "ECCENTRICITY": 0.001601, "INCLINATION": 74.0165, "RA_OF_ASC_NODE": 159.0021, "ARG_OF_PERICENTER": 252.5374, "MEAN_ANOMALY": 286.3826, "EPHEMERIS_TYPE": 0, "CLASSIFICATION_TYPE": "U", "NORAD_CAT_ID": 34819, "ELEMENT_SET_NO": 999, "REV_AT_EPOCH": 88104, "BSTAR": 0.0032807, "MEAN_MOTION_DOT": 0.00017148, "MEAN_MOTION_DDOT": 0}, "tle": {"line1": "1 34819U 93036ABJ 25338.23650850  .00017148  00000+0  32807-2 0  9998", "line2": "2 34819  74.0165 159.0021 0016010 252.5374 286.3826 14.63761020881040"}}, "geometry": {"type": "Point", "coordinates": [74.05404316441894, -73.82192574449338]}}, {"type": "Feature", "properties": {"norad_id": 34823, "name": "COSMOS 2251 DEB", "group": "cosmos-2251-debris", "lat": 10.370174286043563, "lon": -68.41133250165475, "alt_km": 617.0202520438024, "timestamp": "2025-12-06T05:40:09.640772+00:00", "meta": {"OBJECT_NAME": "COSMOS 2251 DEB", "OBJECT_ID": "1993-036ABN", "EPOCH": "2025-12-04T18:13:47.969472", "MEAN_MOTION": 14.54830214, "ECCENTRICITY": 0.01554247, "INCLINATION": 74.0397, "RA_OF_ASC_NODE": 117.3847, "ARG_OF_PERICENTER": 204.1571, "MEAN_ANOMALY": 155.2252, "EPHEMERIS_TYPE": 0, "CLASSIFICATION_TYPE": "U", "NORAD_CAT_ID": 34823, "ELEMENT_SET_NO": 999, "REV_AT_EPOCH": 88265, "BSTAR": 0.0019180243, "MEAN_MOTION_DOT": 9.66e-05, "MEAN_MOTION_DDOT": 0}, "tle": {"line1": "1 34823U 93036ABN 25338.75958298  .00009660  00000+0  19180-2 0  9996", "line2": "2 34823  74.0397 117.3847 0155424 204.1571 155.2252 14.54830214882657"}}, "geometry": {"type": "Point", "coordinates": [-68.41133250165475, 10.370174286043563]}}, {"type": "Feature", "properties": {"norad_id": 34845, "name": "COSMOS 2251 DEB", "group": "cosmos-2251-debris", "lat": -10.02998521721217, "lon": 157.59002130934286, "alt_km": 729.4064207379306, "timestamp": "2025-12-06T05:40:09.640782+00:00", "meta": {"OBJECT_NAME": "COSMOS 2251 DEB", "OBJECT_ID": "1993-036ABP", "EPOCH": "2025-11-28T06:44:43.474272", "MEAN_MOTION": 14.45815545, "ECCENTRICITY": 0.00217969, "INCLINATION": 74.024, "RA_OF_ASC_NODE": 175.3373, "ARG_OF_PERICENTER": 338.6212, "MEAN_ANOMALY": 21.4033, "EPHEMERIS_TYPE": 0, "CLASSIFICATION_TYPE": "U", "NORAD_CAT_ID": 34845, "ELEMENT_SET_NO": 999, "REV_AT_EPOCH": 87257, "BSTAR": 0.00025523358, "MEAN_MOTION_DOT": 8.81e-06, "MEAN_MOTION_DDOT": 0}, "tle": {"line1": "1 34845U 93036ABP 25332.28105873  .00000881  00000+0  25523-3 0  9990", "line2": "2 34845  74.0240 175.3373 0021796 338.6212  21.4033 14.45815545872576"}}, "geometry": {"type": "Point", "coordinates": [157.59002130934286, -10.02998521721217]}}, {"type": "Feature", "properties": {"norad_id": 34846, "name": "COSMOS 2251 DEB", "group": "cosmos-2251-debris", "lat": -69.75171185340515, "lon": 144.85373568530161, "alt_km": 739.7909976445771, "timestamp": "2025-12-06T05:40:09.640792+00:00", "meta": {"OBJECT_NAME": "COSMOS 2251 DEB", "OBJECT_ID": "1993-036ABQ", "EPOCH": "2025-12-04T20:57:31.751424", "MEAN_MOTION": 14.47131587, "ECCENTRICITY": 0.0025931, "INCLINATION": 74.0314, "RA_OF_ASC_NODE": 276.4845, "ARG_OF_PERICENTER": 343.8697, "MEAN_ANOMALY": 16.1633, "EPHEMERIS_TYPE": 0, "CLASSIFICATION_TYPE": "U", "NORAD_CAT_ID": 34846, "ELEMENT_SET_NO": 999, "REV_AT_EPOCH": 87290, "BSTAR": 0.0020632, "MEAN_MOTION_DOT": 7.537e-05, "MEAN_MOTION_DDOT": 0}, "tle": {"line1": "1 34846U 93036ABQ 25338.87328416  .00007537  00000+0  20632-2 0  9992", "line2": "2 34846  74.0314 276.4845 0025931 343.8697  16.1633 14.47131587872909"}}, "geometry": {"type": "Point", "coordinates": [144.85373568530161, -69.75171185340515]}}, {"type": "Feature", "properties": {"norad_id": 34852, "name": "COSMOS 2251 DEB", "group": "cosmos-2251-debris", "lat": -21.09543693845541, "lon": 101.27433058999054, "alt_km": 784.6817219967306, "timestamp": "2025-12-06T05:40:09.640803+00:00", "meta": {"OBJECT_NAME": "COSMOS 2251 DEB", "OBJECT_ID": "1993-036ABW", "EPOCH": "2025-12-05T05:20:30.139584", "MEAN_MOTION": 14.36995637, "ECCENTRICITY": 0.00158725, "INCLINATION": 74.0327, "RA_OF_ASC_NODE": 276.7964, "ARG_OF_PERICENTER": 21.9307, "MEAN_ANOMALY": 338.2522, "EPHEMERIS_TYPE": 0, "CLASSIFICATION_TYPE": "U", "NORAD_CAT_ID": 34852, "ELEMENT_SET_NO": 999, "REV_AT_EPOCH": 87426, "BSTAR": 0.00023390813, "MEAN_MOTION_DOT": 6.68e-06, "MEAN_MOTION_DDOT": 0}, "tle": {"line1": "1 34852U 93036ABW 25339.22257106  .00000668  00000+0  23391-3 0  9990", "line2": "2 34852  74.0327 276.7964 0015872  21.9307 338.2522 14.36995637874268"}}, "geometry": {"type": "Point", "coordinates": [101.27433058999054, -21.09543693845541]}}, {"type": "Feature", "properties": {"norad_id": 34854, "name": "COSMOS 2251 DEB", "group": "cosmos-2251-debris", "lat": -70.96062983840262, "lon": 47.4225306849481, "alt_km": 604.9637489645875, "timestamp": "2025-12-06T05:40:09.640813+00:00", "meta": {"OBJECT_NAME": "COSMOS 2251 DEB", "OBJECT_ID": "1993-036ABY", "EPOCH": "2025-12-05T05:43:38.858016", "MEAN_MOTION": 14.76519505, "ECCENTRICITY": 0.00662093, "INCLINATION": 74.028, "RA_OF_ASC_NODE": 173.2846, "ARG_OF_PERICENTER": 286.4636, "MEAN_ANOMALY": 72.9269, "EPHEMERIS_TYPE": 0, "CLASSIFICATION_TYPE": "U", "NORAD_CAT_ID": 34854, "ELEMENT_SET_NO": 999, "REV_AT_EPOCH": 71771, "BSTAR": 0.001163348, "MEAN_MOTION_DOT": 8.381e-05, "MEAN_MOTION_DDOT": 0}, "tle": {"line1": "1 34854U 93036ABY 25339.23864419  .00008381  00000+0  11633-2 0  9999", "line2": "2 34854  74.0280 173.2846 0066209 286.4636  72.9269 14.76519505717717"}}, "geometry": {"type": "Point", "coordinates": [47.4225306849481, -70.96062983840262]}}, {"type": "Feature", "properties": {"norad_id": 34856, "name": "COSMOS 2251 DEB", "group": "cosmos-2251-debris", "lat": 9.752487151983013, "lon": 101.04936108339432, "alt_km": 568.1892306550062, "timestamp": "2025-12-06T05:40:09.640823+00:00", "meta": {"OBJECT_NAME": "COSMOS 2251 DEB", "OBJECT_ID": "1993-036ACA", "EPOCH": "2025-12-03T19:10:13.988064", "MEAN_MOTION": 15.05251833, "ECCENTRICITY": 0.00346135, "INCLINATION": 73.9972, "RA_OF_ASC_NODE": 103.2267, "ARG_OF_PERICENTER": 241.227, "MEAN_ANOMALY": 245.1465, "EPHEMERIS_TYPE": 0, "CLASSIFICATION_TYPE": "U", "NORAD_CAT_ID": 34856, "ELEMENT_SET_NO": 999, "REV_AT_EPOCH": 88977, "BSTAR": 0.0030177118, "MEAN_MOTION_DOT": 0.00043929, "MEAN_MOTION_DDOT": 0}, "tle": {"line1": "1 34856U 93036ACA 25337.79877301  .00043929  00000+0  30177-2 0  9995", "line2": "2 34856  73.9972 103.2267 0034613 241.2270 245.1465 15.05251833889770"}}, "geometry": {"type": "Point", "coordinates": [101.04936108339432, 9.752487151983013]}}, {"type": "Feature", "properties": {"norad_id": 34857, "name": "COSMOS 2251 DEB", "group": "cosmos-2251-debris", "lat": 36.8086118752919, "lon": 131.62149557198634, "alt_km": 736.2232154671146, "timestamp": "2025-12-06T05:40:09.640833+00:00", "meta": {"OBJECT_NAME": "COSMOS 2251 DEB", "OBJECT_ID": "1993-036ACB", "EPOCH": "2025-12-03T13:53:25.818720", "MEAN_MOTION": 14.58726098, "ECCENTRICITY": 0.00662035, "INCLINATION": 74.0144, "RA_OF_ASC_NODE": 124.2999, "ARG_OF_PERICENTER": 250.3429, "MEAN_ANOMALY": 238.0974, "EPHEMERIS_TYPE": 0, "CLASSIFICATION_TYPE": "U", "NORAD_CAT_ID": 34857, "ELEMENT_SET_NO": 999, "REV_AT_EPOCH": 87767, "BSTAR": 0.0017193547, "MEAN_MOTION_DOT": 8.251e-05, "MEAN_MOTION_DDOT": 0}, "tle": {"line1": "1 34857U 93036ACB 25337.57877105  .00008251  00000+0  17194-2 0  9997", "line2": "2 34857  74.0144 124.2999 0066203 250.3429 238.0974 14.58726098877675"}}, "geometry": {"type": "Point", "coordinates": [131.62149557198634, 36.8086118752919]}}, {"type": "Feature", "properties": {"norad_id": 34859, "name": "COSMOS 2251 DEB", "group": "cosmos-2251-debris", "lat": 37.160606751558944, "lon": 160.64357949870754, "alt_km": 527.6881348979323, "timestamp": "2025-12-06T05:40:09.640843+00:00", "meta": {"OBJECT_NAME": "COSMOS 2251 DEB", "OBJECT_ID": "1993-036ACD", "EPOCH": "2025-12-03T12:38:16.176768", "MEAN_MOTION": 15.12289472, "ECCENTRICITY": 0.00045468, "INCLINATION": 74.0347, "RA_OF_ASC_NODE": 358.7891, "ARG_OF_PERICENTER": 317.5487, "MEAN_ANOMALY": 195.1552, "EPHEMERIS_TYPE": 0, "CLASSIFICATION_TYPE": "U", "NORAD_CAT_ID": 34859, "ELEMENT_SET_NO": 999, "REV_AT_EPOCH": 88219, "BSTAR": 0.0058122279, "MEAN_MOTION_DOT": 0.0010206, "MEAN_MOTION_DDOT": 0}, "tle": {"line1": "1 34859U 93036ACD 25337.52657612  .00102060  00000+0  58122-2 0  9992", "line2": "2 34859  74.0347 358.7891 0004546 317.5487 195.1552 15.12289472882198"}}, "geometry": {"type": "Point", "coordinates": [160.64357949870754, 37.160606751558944]}}, {"type": "Feature", "properties": {"norad_id": 34861, "name": "COSMOS 2251 DEB", "group": "cosmos-2251-debris", "lat": -36.54571403458529, "lon": 51.867980825614325, "alt_km": 568.1253644928183, "timestamp": "2025-12-06T05:40:09.640854+00:00", "meta": {"OBJECT_NAME": "COSMOS 2251 DEB", "OBJECT_ID": "1993-036ACF", "EPOCH": "2025-12-04T06:01:04.857024", "MEAN_MOTION": 15.01729033, "ECCENTRICITY": 0.0006124, "INCLINATION": 74.019, "RA_OF_ASC_NODE": 68.1812, "ARG_OF_PERICENTER": 77.103, "MEAN_ANOMALY": 314.3474, "EPHEMERIS_TYPE": 0, "CLASSIFICATION_TYPE": "U", "NORAD_CAT_ID": 34861, "ELEMENT_SET_NO": 999, "REV_AT_EPOCH": 87965, "BSTAR": 0.0059785, "MEAN_MOTION_DOT": 0.00078683, "MEAN_MOTION_DDOT": 0}, "tle": {"line1": "1 34861U 93036ACF 25338.25075066  .00078683  00000+0  59785-2 0  9992", "line2": "2 34861  74.0190  68.1812 0006124  77.1030 314.3474 15.01729033879654"}}, "geometry": {"type": "Point", "coordinates": [51.867980825614325, -36.54571403458529]}}]}